STARLINK-4383           
1 53473U 22099J   22241.91667824 -.01215024  00000+0 -13832-1 0  9992
2 53473  97.6557   0.7400 0001838  56.0610 341.5394 15.64932878  1308
STARLINK-4445           
1 53474U 22099K   22241.91667824 -.01215082  00000+0 -13817-1 0  9990
2 53474  97.6556   0.7395 0001815  57.8700 342.3248 15.64961644  1305
STARLINK-4389           
1 53475U 22099L   22241.91667824 -.01214833  00000+0 -13826-1 0  9994
2 53475  97.6556   0.7399 0001777  60.5555 337.6937 15.64939979  1304
STARLINK-4378           
1 53476U 22099M   22241.91667824 -.01214150  00000+0 -13830-1 0  9992
2 53476  97.6557   0.7397 0001675  70.5951 325.7079 15.64918075  1301
STARLINK-4412           
1 53477U 22099N   22242.25001157 -.01208078  00000+0 -14218-1 0  9995
2 53477  97.6555   1.1028 0001858  64.4482  51.2683 15.64080109  2974
STARLINK-4433           
1 53478U 22099P   22241.91667824 -.01214410  00000+0 -13829-1 0  9991
2 53478  97.6557   0.7397 0001717  65.8059 331.1459 15.64925431  1303
STARLINK-4436           
1 53479U 22099Q   22242.25001157 -.01208015  00000+0 -14209-1 0  9998
2 53479  97.6555   1.1030 0001883  62.5778  54.4528 15.64094393  2977
STARLINK-4442           
1 53480U 22099R   22241.91667824 -.01215095  00000+0 -13825-1 0  9990
2 53480  97.6556   0.7397 0001831  56.6842 342.2136 15.64947278  1308
STARLINK-4302           
1 53481U 22099S   22241.91667824 -.01215437  00000+0 -13809-1 0  9993
2 53481  97.6556   0.7402 0001909  52.1739 349.9660 15.64983346  1300
STARLINK-4360           
1 53482U 22099T   22241.91667824 -.01215553  00000+0 -13814-1 0  9999
2 53482  97.6556   0.7398 0001980  48.5204 352.9711 15.64976221  1305
STARLINK-4401           
1 53483U 22099U   22241.91667824 -.01215301  00000+0 -13796-1 0  9990
2 53483  97.6556   0.7398 0001812  58.4482 345.6361 15.65004799  1301
STARLINK-4426           
1 53484U 22099V   22242.25001157 -.01208204  00000+0 -14200-1 0  9995
2 53484  97.6555   1.1029 0001749  78.6373  40.3639 15.64116070  2975
