CCSDS_OMM_VERS = 2.0
CREATION_DATE  = 
ORIGINATOR     = 

OBJECT_NAME    = STARLINK-4383
OBJECT_ID      = 2022-099J
CENTER_NAME    = EARTH
REF_FRAME      = TEME
TIME_SYSTEM    = UTC
MEAN_ELEMENT_THEORY = SGP/SGP4

EPOCH          = 2022-08-29T22:00:00.999936
MEAN_MOTION    = 15.64932878
ECCENTRICITY   = .0001838
INCLINATION    = 97.6557
RA_OF_ASC_NODE = 0.7400
ARG_OF_PERICENTER = 56.0610
MEAN_ANOMALY   = 341.5394

EPHEMERIS_TYPE = 0
CLASSIFICATION_TYPE = U
NORAD_CAT_ID   = 53473
ELEMENT_SET_NO = 999
REV_AT_EPOCH   = 130
BSTAR          = -.13832E-1
MEAN_MOTION_DOT = -.1215024E-1
MEAN_MOTION_DDOT = 0

CCSDS_OMM_VERS = 2.0
CREATION_DATE  = 
ORIGINATOR     = 

OBJECT_NAME    = STARLINK-4445
OBJECT_ID      = 2022-099K
CENTER_NAME    = EARTH
REF_FRAME      = TEME
TIME_SYSTEM    = UTC
MEAN_ELEMENT_THEORY = SGP/SGP4

EPOCH          = 2022-08-29T22:00:00.999936
MEAN_MOTION    = 15.64961644
ECCENTRICITY   = .0001815
INCLINATION    = 97.6556
RA_OF_ASC_NODE = 0.7395
ARG_OF_PERICENTER = 57.8700
MEAN_ANOMALY   = 342.3248

EPHEMERIS_TYPE = 0
CLASSIFICATION_TYPE = U
NORAD_CAT_ID   = 53474
ELEMENT_SET_NO = 999
REV_AT_EPOCH   = 130
BSTAR          = -.13817E-1
MEAN_MOTION_DOT = -.1215082E-1
MEAN_MOTION_DDOT = 0

CCSDS_OMM_VERS = 2.0
CREATION_DATE  = 
ORIGINATOR     = 

OBJECT_NAME    = STARLINK-4389
OBJECT_ID      = 2022-099L
CENTER_NAME    = EARTH
REF_FRAME      = TEME
TIME_SYSTEM    = UTC
MEAN_ELEMENT_THEORY = SGP/SGP4

EPOCH          = 2022-08-29T22:00:00.999936
MEAN_MOTION    = 15.64939979
ECCENTRICITY   = .0001777
INCLINATION    = 97.6556
RA_OF_ASC_NODE = 0.7399
ARG_OF_PERICENTER = 60.5555
MEAN_ANOMALY   = 337.6937

EPHEMERIS_TYPE = 0
CLASSIFICATION_TYPE = U
NORAD_CAT_ID   = 53475
ELEMENT_SET_NO = 999
REV_AT_EPOCH   = 130
BSTAR          = -.13826E-1
MEAN_MOTION_DOT = -.1214833E-1
MEAN_MOTION_DDOT = 0

CCSDS_OMM_VERS = 2.0
CREATION_DATE  = 
ORIGINATOR     = 

OBJECT_NAME    = STARLINK-4378
OBJECT_ID      = 2022-099M
CENTER_NAME    = EARTH
REF_FRAME      = TEME
TIME_SYSTEM    = UTC
MEAN_ELEMENT_THEORY = SGP/SGP4

EPOCH          = 2022-08-29T22:00:00.999936
MEAN_MOTION    = 15.64918075
ECCENTRICITY   = .0001675
INCLINATION    = 97.6557
RA_OF_ASC_NODE = 0.7397
ARG_OF_PERICENTER = 70.5951
MEAN_ANOMALY   = 325.7079

EPHEMERIS_TYPE = 0
CLASSIFICATION_TYPE = U
NORAD_CAT_ID   = 53476
ELEMENT_SET_NO = 999
REV_AT_EPOCH   = 130
BSTAR          = -.1383E-1
MEAN_MOTION_DOT = -.121415E-1
MEAN_MOTION_DDOT = 0

CCSDS_OMM_VERS = 2.0
CREATION_DATE  = 
ORIGINATOR     = 

OBJECT_NAME    = STARLINK-4412
OBJECT_ID      = 2022-099N
CENTER_NAME    = EARTH
REF_FRAME      = TEME
TIME_SYSTEM    = UTC
MEAN_ELEMENT_THEORY = SGP/SGP4

EPOCH          = 2022-08-30T06:00:00.999648
MEAN_MOTION    = 15.64080109
ECCENTRICITY   = .0001858
INCLINATION    = 97.6555
RA_OF_ASC_NODE = 1.1028
ARG_OF_PERICENTER = 64.4482
MEAN_ANOMALY   = 51.2683

EPHEMERIS_TYPE = 0
CLASSIFICATION_TYPE = U
NORAD_CAT_ID   = 53477
ELEMENT_SET_NO = 999
REV_AT_EPOCH   = 297
BSTAR          = -.14218E-1
MEAN_MOTION_DOT = -.1208078E-1
MEAN_MOTION_DDOT = 0

CCSDS_OMM_VERS = 2.0
CREATION_DATE  = 
ORIGINATOR     = 

OBJECT_NAME    = STARLINK-4433
OBJECT_ID      = 2022-099P
CENTER_NAME    = EARTH
REF_FRAME      = TEME
TIME_SYSTEM    = UTC
MEAN_ELEMENT_THEORY = SGP/SGP4

EPOCH          = 2022-08-29T22:00:00.999936
MEAN_MOTION    = 15.64925431
ECCENTRICITY   = .0001717
INCLINATION    = 97.6557
RA_OF_ASC_NODE = 0.7397
ARG_OF_PERICENTER = 65.8059
MEAN_ANOMALY   = 331.1459

EPHEMERIS_TYPE = 0
CLASSIFICATION_TYPE = U
NORAD_CAT_ID   = 53478
ELEMENT_SET_NO = 999
REV_AT_EPOCH   = 130
BSTAR          = -.13829E-1
MEAN_MOTION_DOT = -.121441E-1
MEAN_MOTION_DDOT = 0

CCSDS_OMM_VERS = 2.0
CREATION_DATE  = 
ORIGINATOR     = 

OBJECT_NAME    = STARLINK-4436
OBJECT_ID      = 2022-099Q
CENTER_NAME    = EARTH
REF_FRAME      = TEME
TIME_SYSTEM    = UTC
MEAN_ELEMENT_THEORY = SGP/SGP4

EPOCH          = 2022-08-30T06:00:00.999648
MEAN_MOTION    = 15.64094393
ECCENTRICITY   = .0001883
INCLINATION    = 97.6555
RA_OF_ASC_NODE = 1.1030
ARG_OF_PERICENTER = 62.5778
MEAN_ANOMALY   = 54.4528

EPHEMERIS_TYPE = 0
CLASSIFICATION_TYPE = U
NORAD_CAT_ID   = 53479
ELEMENT_SET_NO = 999
REV_AT_EPOCH   = 297
BSTAR          = -.14209E-1
MEAN_MOTION_DOT = -.1208015E-1
MEAN_MOTION_DDOT = 0

CCSDS_OMM_VERS = 2.0
CREATION_DATE  = 
ORIGINATOR     = 

OBJECT_NAME    = STARLINK-4442
OBJECT_ID      = 2022-099R
CENTER_NAME    = EARTH
REF_FRAME      = TEME
TIME_SYSTEM    = UTC
MEAN_ELEMENT_THEORY = SGP/SGP4

EPOCH          = 2022-08-29T22:00:00.999936
MEAN_MOTION    = 15.64947278
ECCENTRICITY   = .0001831
INCLINATION    = 97.6556
RA_OF_ASC_NODE = 0.7397
ARG_OF_PERICENTER = 56.6842
MEAN_ANOMALY   = 342.2136

EPHEMERIS_TYPE = 0
CLASSIFICATION_TYPE = U
NORAD_CAT_ID   = 53480
ELEMENT_SET_NO = 999
REV_AT_EPOCH   = 130
BSTAR          = -.13825E-1
MEAN_MOTION_DOT = -.1215095E-1
MEAN_MOTION_DDOT = 0

CCSDS_OMM_VERS = 2.0
CREATION_DATE  = 
ORIGINATOR     = 

OBJECT_NAME    = STARLINK-4302
OBJECT_ID      = 2022-099S
CENTER_NAME    = EARTH
REF_FRAME      = TEME
TIME_SYSTEM    = UTC
MEAN_ELEMENT_THEORY = SGP/SGP4

EPOCH          = 2022-08-29T22:00:00.999936
MEAN_MOTION    = 15.64983346
ECCENTRICITY   = .0001909
INCLINATION    = 97.6556
RA_OF_ASC_NODE = 0.7402
ARG_OF_PERICENTER = 52.1739
MEAN_ANOMALY   = 349.9660

EPHEMERIS_TYPE = 0
CLASSIFICATION_TYPE = U
NORAD_CAT_ID   = 53481
ELEMENT_SET_NO = 999
REV_AT_EPOCH   = 130
BSTAR          = -.13809E-1
MEAN_MOTION_DOT = -.1215437E-1
MEAN_MOTION_DDOT = 0

CCSDS_OMM_VERS = 2.0
CREATION_DATE  = 
ORIGINATOR     = 

OBJECT_NAME    = STARLINK-4360
OBJECT_ID      = 2022-099T
CENTER_NAME    = EARTH
REF_FRAME      = TEME
TIME_SYSTEM    = UTC
MEAN_ELEMENT_THEORY = SGP/SGP4

EPOCH          = 2022-08-29T22:00:00.999936
MEAN_MOTION    = 15.64976221
ECCENTRICITY   = .000198
INCLINATION    = 97.6556
RA_OF_ASC_NODE = 0.7398
ARG_OF_PERICENTER = 48.5204
MEAN_ANOMALY   = 352.9711

EPHEMERIS_TYPE = 0
CLASSIFICATION_TYPE = U
NORAD_CAT_ID   = 53482
ELEMENT_SET_NO = 999
REV_AT_EPOCH   = 130
BSTAR          = -.13814E-1
MEAN_MOTION_DOT = -.1215553E-1
MEAN_MOTION_DDOT = 0

CCSDS_OMM_VERS = 2.0
CREATION_DATE  = 
ORIGINATOR     = 

OBJECT_NAME    = STARLINK-4401
OBJECT_ID      = 2022-099U
CENTER_NAME    = EARTH
REF_FRAME      = TEME
TIME_SYSTEM    = UTC
MEAN_ELEMENT_THEORY = SGP/SGP4

EPOCH          = 2022-08-29T22:00:00.999936
MEAN_MOTION    = 15.65004799
ECCENTRICITY   = .0001812
INCLINATION    = 97.6556
RA_OF_ASC_NODE = 0.7398
ARG_OF_PERICENTER = 58.4482
MEAN_ANOMALY   = 345.6361

EPHEMERIS_TYPE = 0
CLASSIFICATION_TYPE = U
NORAD_CAT_ID   = 53483
ELEMENT_SET_NO = 999
REV_AT_EPOCH   = 130
BSTAR          = -.13796E-1
MEAN_MOTION_DOT = -.1215301E-1
MEAN_MOTION_DDOT = 0

CCSDS_OMM_VERS = 2.0
CREATION_DATE  = 
ORIGINATOR     = 

OBJECT_NAME    = STARLINK-4426
OBJECT_ID      = 2022-099V
CENTER_NAME    = EARTH
REF_FRAME      = TEME
TIME_SYSTEM    = UTC
MEAN_ELEMENT_THEORY = SGP/SGP4

EPOCH          = 2022-08-30T06:00:00.999648
MEAN_MOTION    = 15.64116070
ECCENTRICITY   = .0001749
INCLINATION    = 97.6555
RA_OF_ASC_NODE = 1.1029
ARG_OF_PERICENTER = 78.6373
MEAN_ANOMALY   = 40.3639

EPHEMERIS_TYPE = 0
CLASSIFICATION_TYPE = U
NORAD_CAT_ID   = 53484
ELEMENT_SET_NO = 999
REV_AT_EPOCH   = 297
BSTAR          = -.142E-1
MEAN_MOTION_DOT = -.1208204E-1
MEAN_MOTION_DDOT = 0

